STARLINK-30919          
1 58411U 23180K   26157.04774677  .00000670  00000+0  33866-4 0  9998
2 58411  43.0046 273.0981 0001741 267.3619  92.7033 15.27580573141042
STARLINK-30924          
1 58412U 23180L   26157.58064897  .00060977  00000+0  12815-2 0  9999
2 58412  42.9975 115.2836 0010042 164.8732 195.2428 15.44442249143044
STARLINK-30931          
1 58413U 23180M   26156.61064622  .00001193  00000+0  52854-4 0  9993
2 58413  43.0036 264.7600 0000131  84.3851 275.7016 15.27583154141205
STARLINK-30922          
1 58414U 23180N   26157.61451606  .00005593  00000+0  21259-3 0  9999
2 58414  43.0029 270.5289 0002578 280.7793  79.2768 15.27582497141222
STARLINK-30949          
1 58415U 23180P   26157.60423604  .00003234  00000+0  12687-3 0  9991
2 58415  42.9986 270.4373 0000265 251.1599 108.9224 15.27603607141227
STARLINK-30967          
1 58416U 23180Q   26157.60040667  .00001914  00000+0  79066-4 0  9994
2 58416  43.0025 270.4264 0001963 270.7695  89.2932 15.27577876141228
STARLINK-30955          
1 58417U 23180R   26156.06438663  .00001472  00000+0  62993-4 0  9991
2 58417  43.0015 278.6800 0001090 245.9289 114.1448 15.27586482140994
STARLINK-30895          
1 58418U 23180S   26157.59397453  .00002757  00000+0  10962-3 0  9997
2 58418  43.0015 270.3928 0000943 276.0196  84.0548 15.27594164141110
STARLINK-30917          
1 58419U 23180T   26157.72559056  .00001060  00000+0  48022-4 0  9997
2 58419  43.0018 160.9299 0001404 280.4228  79.6466 15.27583143142516
STARLINK-30899          
1 58420U 23180U   26157.57598757 -.00001593  00000+0 -48399-4 0  9993
2 58420  43.0024 270.2570 0000843 275.5464  84.5292 15.27576418141108
STARLINK-30902          
1 58421U 23180V   26157.59653590  .00002381  00000+0  95962-4 0  9995
2 58421  43.0035 270.4051 0001174 274.2403  85.8315 15.27595371141114
STARLINK-30912          
1 58422U 23180W   26157.19619962  .00000929  00000+0  43285-4 0  9994
2 58422  43.0024 130.4587 0001633 268.5875  91.4789 15.27579076142833
STARLINK-30900          
1 58423U 23180X   26157.59011632  .00003243  00000+0  12725-3 0  9995
2 58423  43.0005 270.3098 0000991 251.7137 108.3607 15.27598073141110
STARLINK-30908          
1 58424U 23180Y   26157.46190564  .00013924  00000+0  51459-3 0  9998
2 58424  42.9994 271.0240 0001040 275.2066  84.8667 15.27577046141202
CHUANGXIN 20A (CX-20A)  
1 58425U 23181A   26157.92831775 -.00000088  00000+0  72109-4 0  9991
2 58425  49.9603   4.3400 0012887 235.4420 124.5241 13.41496660124370
CHUANGXIN 20B (CX-20B)  
1 58426U 23181B   26157.93624894 -.00000067  00000+0  10902-3 0  9994
2 58426  49.9601   4.3691 0010899 238.7828 121.1981 13.41490333124364
CHUANGXIN 20C (CX-20C)  
1 58427U 23181C   26157.93349946 -.00000074  00000+0  97164-4 0  9991
2 58427  49.9601   4.3556 0011142 226.2900 133.7054 13.41483888124378
COSMOS 2572             
1 58435U 23182A   26157.80084050  .00009497  19143-5  33344-4 0  9990
2 58435  96.6796 262.0473 0016552 206.8848 153.1571 15.90109439146802
STARLINK-30869          
1 58437U 23183A   26157.55176940  .00003358  00000+0  13143-3 0  9995
2 58437  43.0015 259.8628 0001407 272.4606  87.6085 15.27596569140320
STARLINK-30969          
1 58438U 23183B   26157.54793477  .00001498  00000+0  64013-4 0  9991
2 58438  43.0014 259.8367 0003828 281.8823  78.1599 15.27553186140327
STARLINK-30951          
1 58439U 23183C   26157.55561867  .00002804  00000+0  11134-3 0  9996
2 58439  43.0011 259.8902 0001441 274.6429  85.4258 15.27594112140328
STARLINK-30950          
1 58440U 23183D   26156.44156222  .00003347  00000+0  13106-3 0  9994
2 58440  42.9998  69.5535 0000864 253.2607 106.8150 15.27591807142452
STARLINK-30942          
1 58441U 23183E   26156.59781889  .00001180  00000+0  52379-4 0  9993
2 58441  42.9991 264.7454 0000290 282.4726  77.6094 15.27583908140187
STARLINK-30959          
1 58442U 23183F   26157.58888130  .00000553  00000+0  29595-4 0  9998
2 58442  42.9997 259.2812 0000723 240.0894 119.9886 15.27583034140334
STARLINK-30971          
1 58443U 23183G   26157.57360638  .00003827  00000+0  14844-3 0  9993
2 58443  42.9974 260.0160 0002396 283.3741  76.6843 15.27598585140323
STARLINK-30963          
1 58444U 23183H   26157.59273422  .00001458  00000+0  62481-4 0  9999
2 58444  43.0018 259.3044 0000811 268.8971  91.1788 15.27586783140338
STARLINK-30961          
1 58445U 23183J   26156.02733117  .00000851  00000+0  40453-4 0  9990
2 58445  43.0016 268.1980 0001043 279.4715  80.6019 15.27574299140098
STARLINK-30975          
1 58446U 23183K   26152.82211257 -.00000019  00000+0  88344-5 0  9990
2 58446  43.0001 286.2709 0000900 198.1027 161.9793 15.27573652139628
STARLINK-30976          
1 58447U 23183L   26157.01968863  .00000651  00000+0  33185-4 0  9992
2 58447  43.0041 262.7746 0002220 259.2914 100.7688 15.27579372140243
STARLINK-30926          
1 58448U 23183M   26157.58116006  .00002523  00000+0  10114-3 0  9995
2 58448  43.0022 259.1802 0001001 284.6332  75.4408 15.27595802140332
