OBJECT_NAME,OBJECT_ID,EPOCH,MEAN_MOTION,ECCENTRICITY,INCLINATION,RA_OF_ASC_NODE,ARG_OF_PERICENTER,MEAN_ANOMALY,EPHEMERIS_TYPE,CLASSIFICATION_TYPE,NORAD_CAT_ID,ELEMENT_SET_NO,REV_AT_EPOCH,BSTAR,MEAN_MOTION_DOT,MEAN_MOTION_DDOT
STARLINK-30919,2023-180K,2026-06-06T01:08:45.320928,15.27580573,.0001741,43.0046,273.0981,267.3619,92.7033,0,U,58411,999,14104,.33866E-4,.67E-5,0
STARLINK-30924,2023-180L,2026-06-06T13:56:08.071008,15.44442249,.0010042,42.9975,115.2836,164.8732,195.2428,0,U,58412,999,14304,.12815E-2,.60977E-3,0
STARLINK-30931,2023-180M,2026-06-05T14:39:19.833408,15.27583154,.00001316,43.0036,264.7600,84.3851,275.7016,0,U,58413,999,14120,.52853897E-4,.1193E-4,0
STARLINK-30922,2023-180N,2026-06-06T14:44:54.187584,15.27582497,.0002578,43.0029,270.5289,280.7793,79.2768,0,U,58414,999,14122,.21259E-3,.5593E-4,0
STARLINK-30949,2023-180P,2026-06-06T14:30:05.993856,15.27603607,.0000265,42.9986,270.4373,251.1599,108.9224,0,U,58415,999,14122,.12687E-3,.3234E-4,0
STARLINK-30967,2023-180Q,2026-06-06T14:24:35.136288,15.27577876,.0001963,43.0025,270.4264,270.7695,89.2932,0,U,58416,999,14122,.79066E-4,.1914E-4,0
STARLINK-30955,2023-180R,2026-06-05T01:32:43.004832,15.27586482,.00010903,43.0015,278.6800,245.9289,114.1448,0,U,58417,999,14099,.62993005E-4,.1472E-4,0
STARLINK-30895,2023-180S,2026-06-06T14:15:19.399392,15.27594164,.0000943,43.0015,270.3928,276.0196,84.0548,0,U,58418,999,14111,.10962E-3,.2757E-4,0
STARLINK-30917,2023-180T,2026-06-06T17:24:51.024384,15.27583143,.00014042,43.0018,160.9299,280.4228,79.6466,0,U,58419,999,14251,.48022425E-4,.106E-4,0
STARLINK-30899,2023-180U,2026-06-06T13:49:25.326048,15.27576418,.0000843,43.0024,270.2570,275.5464,84.5292,0,U,58420,999,14110,-.48399E-4,-.1593E-4,0
STARLINK-30902,2023-180V,2026-06-06T14:19:00.701760,15.27595371,.0001174,43.0035,270.4051,274.2403,85.8315,0,U,58421,999,14111,.95962E-4,.2381E-4,0
STARLINK-30912,2023-180W,2026-06-06T04:42:31.647168,15.27579076,.00016332,43.0024,130.4587,268.5875,91.4789,0,U,58422,999,14283,.43285387E-4,.929E-5,0
STARLINK-30900,2023-180X,2026-06-06T14:09:46.050048,15.27598073,.00009919,43.0005,270.3098,251.7137,108.3607,0,U,58423,999,14111,.12725447E-3,.3243E-4,0
STARLINK-30908,2023-180Y,2026-06-06T11:05:08.647296,15.27577046,.00010404,42.9994,271.0240,275.2066,84.8667,0,U,58424,999,14120,.51459096E-3,.13924E-3,0
CHUANGXIN 20A (CX-20A),2023-181A,2026-06-06T22:16:46.653600,13.41496660,.00128874,49.9603,4.3400,235.4420,124.5241,0,U,58425,999,12437,.72108549E-4,-.88E-6,0
CHUANGXIN 20B (CX-20B),2023-181B,2026-06-06T22:28:11.908416,13.41490333,.00108998,49.9601,4.3691,238.7828,121.1981,0,U,58426,999,12436,.10901638E-3,-.67E-6,0
CHUANGXIN 20C (CX-20C),2023-181C,2026-06-06T22:24:14.353344,13.41483888,.00111422,49.9601,4.3556,226.2900,133.7054,0,U,58427,999,12437,.97164387E-4,-.74E-6,0
COSMOS 2572,2023-182A,2026-06-06T19:13:12.619200,15.90109439,.00165525,96.6796,262.0473,206.8848,153.1571,0,U,58435,999,14680,.33343558E-4,.9497E-4,.1914267E-5
STARLINK-30869,2023-183A,2026-06-06T13:14:32.876160,15.27596569,.00014071,43.0015,259.8628,272.4606,87.6085,0,U,58437,999,14032,.13142842E-3,.3358E-4,0
STARLINK-30969,2023-183B,2026-06-06T13:09:01.564128,15.27553186,.0003828,43.0014,259.8367,281.8823,78.1599,0,U,58438,999,14032,.64013E-4,.1498E-4,0
STARLINK-30951,2023-183C,2026-06-06T13:20:05.453088,15.27594112,.0001441,43.0011,259.8902,274.6429,85.4258,0,U,58439,999,14032,.11134E-3,.2804E-4,0
STARLINK-30950,2023-183D,2026-06-05T10:35:50.975808,15.27591807,.0000864,42.9998,69.5535,253.2607,106.8150,0,U,58440,999,14245,.13105952E-3,.3347E-4,0
STARLINK-30942,2023-183E,2026-06-05T14:20:51.552096,15.27583908,.00002907,42.9991,264.7454,282.4726,77.6094,0,U,58441,999,14018,.5237918E-4,.118E-4,0
STARLINK-30959,2023-183F,2026-06-06T14:07:59.344320,15.27583034,.0000723,42.9997,259.2812,240.0894,119.9886,0,U,58442,999,14033,.29595E-4,.553E-5,0
STARLINK-30971,2023-183G,2026-06-06T13:45:59.591232,15.27598585,.0002396,42.9974,260.0160,283.3741,76.6843,0,U,58443,999,14032,.14844E-3,.3827E-4,0
STARLINK-30963,2023-183H,2026-06-06T14:13:32.236608,15.27586783,.0000811,43.0018,259.3044,268.8971,91.1788,0,U,58444,999,14033,.62481E-4,.1458E-4,0
STARLINK-30961,2023-183J,2026-06-05T00:39:21.413088,15.27574299,.0001043,43.0016,268.1980,279.4715,80.6019,0,U,58445,999,14009,.40453376E-4,.851E-5,0
STARLINK-30975,2023-183K,2026-06-01T19:43:50.526048,15.27573652,.00009002,43.0001,286.2709,198.1027,161.9793,0,U,58446,999,13962,.8834422E-5,-.19E-6,0
STARLINK-30976,2023-183L,2026-06-06T00:28:21.097632,15.27579372,.000222,43.0041,262.7746,259.2914,100.7688,0,U,58447,999,14024,.33185E-4,.651E-5,0
STARLINK-30926,2023-183M,2026-06-06T13:56:52.229184,15.27595802,.0001001,43.0022,259.1802,284.6332,75.4408,0,U,58448,999,14033,.10114E-3,.2523E-4,0
